ICEYE-X72               
1 68504U 26067CS  26188.34013215  .00134479  00000+0  12160-1 0  9996
2 68504  97.7600 146.3882 0000970 294.3322  65.7797 14.94725015 14731
ICEYE-X78               
1 68995U 26100R   26187.66149358  .00001101  00000+0  11463-3 0  9992
2 68995  97.7346  84.7543 0003881  71.9100 288.2542 14.91802256  9608
ICEYE-X82               
1 68996U 26100S   26188.15083043  .00001770  00000+0  18277-3 0  9998
2 68996  97.7338  85.1846 0005945  83.1099 277.0796 14.91400997  9676
