{"fetched_at":"2026-07-07T18:29:31.841Z","source":"https://celestrak.org/NORAD/elements/gp.php?NAME=ICEYE&FORMAT=JSON","constellation":"iceye","records":[{"OBJECT_NAME":"ICEYE-X72","OBJECT_ID":"2026-067CS","EPOCH":"2026-07-07T08:09:47.416896","CLASSIFICATION_TYPE":"U","MEAN_MOTION":14.94725014,"ECCENTRICITY":0.000097,"INCLINATION":97.76,"RA_OF_ASC_NODE":146.3882,"ARG_OF_PERICENTER":294.3322,"MEAN_ANOMALY":65.7797,"EPHEMERIS_TYPE":0,"NORAD_CAT_ID":68504,"ELEMENT_SET_NO":999,"REV_AT_EPOCH":1473,"BSTAR":0.01216,"MEAN_MOTION_DOT":0.00134479,"MEAN_MOTION_DDOT":0},{"OBJECT_NAME":"ICEYE-X78","OBJECT_ID":"2026-100R","EPOCH":"2026-07-06T15:52:33.045312","CLASSIFICATION_TYPE":"U","MEAN_MOTION":14.91802256,"ECCENTRICITY":0.0003881,"INCLINATION":97.7346,"RA_OF_ASC_NODE":84.7543,"ARG_OF_PERICENTER":71.91,"MEAN_ANOMALY":288.2542,"EPHEMERIS_TYPE":0,"NORAD_CAT_ID":68995,"ELEMENT_SET_NO":999,"REV_AT_EPOCH":960,"BSTAR":0.00011463,"MEAN_MOTION_DOT":0.00001101,"MEAN_MOTION_DDOT":0},{"OBJECT_NAME":"ICEYE-X82","OBJECT_ID":"2026-100S","EPOCH":"2026-07-07T03:37:11.749152","CLASSIFICATION_TYPE":"U","MEAN_MOTION":14.91400997,"ECCENTRICITY":0.0005945,"INCLINATION":97.7338,"RA_OF_ASC_NODE":85.1846,"ARG_OF_PERICENTER":83.1099,"MEAN_ANOMALY":277.0796,"EPHEMERIS_TYPE":0,"NORAD_CAT_ID":68996,"ELEMENT_SET_NO":999,"REV_AT_EPOCH":967,"BSTAR":0.00018277,"MEAN_MOTION_DOT":0.0000177,"MEAN_MOTION_DDOT":0}]}
